GLOBALSTAR M063         
1 26081U 00008A   25362.23575279 -.00000065  00000+0  25540-3 0  9993
2 26081  51.9981 320.5141 0004793 331.0752 137.0466 11.86178559180605
GLOBALSTAR M062         
1 26082U 00008B   25362.10261025 -.00000048  00000+0  35651-3 0  9996
2 26082  51.9834 245.5304 0007015 158.0341 350.5379 12.43479248520742
GLOBALSTAR M060         
1 26083U 00008C   25362.05226969 -.00000073  00000+0  17992-3 0  9995
2 26083  52.0007 233.1150 0003469 139.3309   6.0638 12.17671659175988
GLOBALSTAR M064         
1 26084U 00008D   25362.16067172 -.00000068  00000+0  22185-3 0  9991
2 26084  52.0048  57.2531 0001746  88.0993 272.0040 11.88539758190166
GLOBALSTAR M065         
1 31571U 07020A   25351.59775860 -.00000114  00000+0 -59491-4 0  9998
2 31571  51.9915  28.0181 0009699 356.5964 173.4742 12.62015524856566
GLOBALSTAR M069         
1 31573U 07020C   25362.46900256 -.00000075  00000+0  15815-3 0  9993
2 31573  52.0051  15.3240 0001966 153.3468  13.6609 12.23465243857907
GLOBALSTAR M072         
1 31574U 07020D   25362.29924956 -.00000067  00000+0  23369-3 0  9992
2 31574  51.9895 195.1964 0001444  35.8205 135.2902 11.91654809854609
GLOBALSTAR M071         
1 31576U 07020F   25362.42421491 -.00000120  00000+0 -28023-3 0  9998
2 31576  52.0073  46.5444 0001246 140.2243 324.9259 12.18263437518619
